M2 PATHFINDER           
1 45727U 20037E   26204.08863179  .00002397  00000+0  17405-3 0  9993
2 45727  97.8144  35.7270 0012203  37.2846 322.9225 15.04815314330892
NETSAT-4                
1 46504U 20068U   26204.01860722  .00020969  00000+0  44656-3 0  9998
2 46504  97.8610 215.1699 0005710 167.1135 193.0259 15.44960693321307
NETSAT-3                
1 46505U 20068V   26204.44069409  .00020026  00000+0  44326-3 0  9997
2 46505  97.8664 213.7994 0004851 180.2815 179.8429 15.43832128321272
NETSAT-1                
1 46506U 20068W   26204.44442406  .00012249  00000+0  35865-3 0  9996
2 46506  97.8764 207.6964 0003120 217.4832 142.6193 15.35391814320866
NETSAT-2                
1 46507U 20068X   26204.45784326  .00023621  00000+0  46178-3 0  9993
2 46507  97.8618 215.6811 0003425 177.8424 182.2840 15.47450695321348
GREENCUBE (IO-117)      
1 53109U 22080E   26203.66940058 -.00000003  00000+0  00000+0 0  9993
2 53109  70.1381 285.9076 0009327 282.2706  77.6909  6.42583354 94343
SITRO-AIS 5 (KATYS)     
1 57176U 23091L   26204.56749049  .00011848  00000+0  40732-3 0  9999
2 57176  97.5041 268.8282 0009801 341.5803  18.5081 15.30205817169902
SITRO-AIS 6 (CHIRKIN)   
1 57192U 23091AC  26204.56639231  .00009694  00000+0  37298-3 0  9997
2 57192  97.5050 267.7495 0010301 346.4664  13.6297 15.26553474169837
SITRO-AIS 8 (ANOKHIN)   
1 57193U 23091AD  26204.58448681  .00013636  00000+0  42918-3 0  9993
2 57193  97.5037 270.5862 0008712 335.9046  24.1787 15.33025353170025
SITRO-AIS 7 (FARTUSHNIY)
1 57194U 23091AE  26204.57718015  .00009737  00000+0  37833-3 0  9991
2 57194  97.5045 267.5658 0010276 347.7009  12.3977 15.26224740169821
SITRO-AIS 10 (BURDAEV)  
1 57199U 23091AK  26204.58853717  .00019599  00000+0  49458-3 0  9999
2 57199  97.5063 276.0310 0004402 301.9367  58.1450 15.39877613170361
SITRO-AIS 9 (SHCHUKIN)  
1 57201U 23091AM  26204.49688099  .00020182  00000+0  51802-3 0  9998
2 57201  97.5060 275.6377 0004644 303.3932  56.6868 15.39350255170333
SITRO-AIS 12 (SMIRENNIY)
1 57204U 23091AQ  26204.48057234  .00021219  00000+0  53920-3 0  9996
2 57204  97.5074 276.1111 0004349 294.5131  65.5661 15.39648000170357
SITRO-AIS 11 (SHEFFER)  
1 57208U 23091AU  26204.54866098  .00021003  00000+0  52589-3 0  9994
2 57208  97.5071 276.4510 0004293 293.4005  66.6789 15.40102077170387
SITRO-AIS 25            
1 59066U 24039R   26204.62106362  .00003938  00000+0  30648-3 0  9990
2 59066  95.3885 260.1280 0143657 199.7862 159.7758 14.93680303130163
SITRO-AIS 26            
1 59067U 24039S   26204.62747576  .00004425  00000+0  34574-3 0  9993
2 59067  95.3887 260.0224 0143962 200.3643 159.1808 14.93471510130155
SITRO-AIS 27            
1 59068U 24039T   26204.58742859  .00004129  00000+0  31987-3 0  9994
2 59068  95.3896 260.2837 0142998 198.9995 160.5866 14.93902404130171
SITRO-AIS 28            
1 59071U 24039U   26204.63104152  .00004561  00000+0  35282-3 0  9994
2 59071  95.3891 260.3628 0142954 198.6853 160.9096 14.93931714130187
GRBBETA                 
1 60237U 24128C   26204.12269231  .00003245  00000+0  22788-3 0  9998
2 60237  61.9898  90.1657 0035998 142.3680 217.9942 15.06847809111686
OOV-CUBE (TUBSAT-30)    
1 60240U 24128F   26204.18460515  .00001732  00000+0  14199-3 0  9992
2 60240  61.9942 100.0399 0040077 141.8645 218.5295 15.02898344111520
ROBUSTA-3A (MEDITERRAN*)
1 60243U 24128J   26204.37882720  .00007411  00000+0  43416-3 0  9996
2 60243  61.9864  80.2188 0036870 135.7229 224.6827 15.12073047111892
LASARSAT                
1 62391U 24247Q   26204.32005667  .00036309  00000+0  67064-3 0  9999
2 62391  44.9747  58.8369 0008725 216.7306 143.2988 15.48476660 88912
CROCUBE                 
1 62394U 24247T   26203.94787493  .00048107  00000+0  81915-3 0  9993
2 62394  44.9710  57.6351 0008728 220.4792 139.5451 15.50668241 88898
FORESAIL-1 PRIME        
1 66778U 25276DS  26204.23117181  .00004064  00000+0  19751-3 0  9993
2 66778  97.4185 276.8460 0002247  25.0792 335.0551 15.18986431 35874
KNACKSAT-2              
1 67683U 98067XZ  26204.25230709  .00054830  00000+0  59136-3 0  9998
2 67683  51.6273 112.6377 0007453 354.3723   5.7186 15.63087127 25913
