OBJECT_NAME,OBJECT_ID,EPOCH,MEAN_MOTION,ECCENTRICITY,INCLINATION,RA_OF_ASC_NODE,ARG_OF_PERICENTER,MEAN_ANOMALY,EPHEMERIS_TYPE,CLASSIFICATION_TYPE,NORAD_CAT_ID,ELEMENT_SET_NO,REV_AT_EPOCH,BSTAR,MEAN_MOTION_DOT,MEAN_MOTION_DDOT
M2 PATHFINDER,2020-037E,2026-07-23T02:07:37.786656,15.04815314,.00122038,97.8144,35.7270,37.2846,322.9225,0,U,45727,999,33089,.17405258E-3,.2397E-4,0
NETSAT-4,2020-068U,2026-07-23T00:26:47.663808,15.44960693,.00057101,97.8610,215.1699,167.1135,193.0259,0,U,46504,999,32130,.44655502E-3,.20969E-3,0
NETSAT-3,2020-068V,2026-07-23T10:34:35.969376,15.43832128,.00048514,97.8664,213.7994,180.2815,179.8429,0,U,46505,999,32127,.44325655E-3,.20026E-3,0
NETSAT-1,2020-068W,2026-07-23T10:39:58.238784,15.35391814,.00031203,97.8764,207.6964,217.4832,142.6193,0,U,46506,999,32086,.3586521E-3,.12249E-3,0
NETSAT-2,2020-068X,2026-07-23T10:59:17.657664,15.47450695,.0003425,97.8618,215.6811,177.8424,182.2840,0,U,46507,999,32134,.46178008E-3,.23621E-3,0
GREENCUBE (IO-117),2022-080E,2026-07-22T16:03:56.210112,6.42583354,.00093274,70.1381,285.9076,282.2706,77.6909,0,U,53109,999,9434,0,-.3E-7,0
SITRO-AIS 5 (KATYS),2023-091L,2026-07-23T13:37:11.178336,15.30205817,.00098012,97.5041,268.8282,341.5803,18.5081,0,U,57176,999,16990,.40732365E-3,.11848E-3,0
SITRO-AIS 6 (CHIRKIN),2023-091AC,2026-07-23T13:35:36.295584,15.26553474,.00103019,97.5050,267.7495,346.4664,13.6297,0,U,57192,999,16983,.37298318E-3,.9694E-4,0
SITRO-AIS 8 (ANOKHIN),2023-091AD,2026-07-23T14:01:39.660384,15.33025353,.00087125,97.5037,270.5862,335.9046,24.1787,0,U,57193,999,17002,.42917578E-3,.13636E-3,0
SITRO-AIS 7 (FARTUSHNIY),2023-091AE,2026-07-23T13:51:08.364960,15.26224740,.0010276,97.5045,267.5658,347.7009,12.3977,0,U,57194,999,16982,.37833496E-3,.9737E-4,0
SITRO-AIS 10 (BURDAEV),2023-091AK,2026-07-23T14:07:29.611488,15.39877613,.00044024,97.5063,276.0310,301.9367,58.1450,0,U,57199,999,17036,.4945761E-3,.19599E-3,0
SITRO-AIS 9 (SHCHUKIN),2023-091AM,2026-07-23T11:55:30.517536,15.39350255,.00046446,97.5060,275.6377,303.3932,56.6868,0,U,57201,999,17033,.51801831E-3,.20182E-3,0
SITRO-AIS 12 (SMIRENNIY),2023-091AQ,2026-07-23T11:32:01.450176,15.39648000,.00043497,97.5074,276.1111,294.5131,65.5661,0,U,57204,999,17035,.53919883E-3,.21219E-3,0
SITRO-AIS 11 (SHEFFER),2023-091AU,2026-07-23T13:10:04.308672,15.40102077,.00042931,97.5071,276.4510,293.4005,66.6789,0,U,57208,999,17038,.52589457E-3,.21003E-3,0
SITRO-AIS 25,2024-039R,2026-07-23T14:54:19.896768,14.93680303,.01436578,95.3885,260.1280,199.7862,159.7758,0,U,59066,999,13016,.30648127E-3,.3938E-4,0
SITRO-AIS 26,2024-039S,2026-07-23T15:03:33.905664,14.93471510,.0143962,95.3887,260.0224,200.3643,159.1808,0,U,59067,999,13015,.34574015E-3,.4425E-4,0
SITRO-AIS 27,2024-039T,2026-07-23T14:05:53.830176,14.93902404,.01429981,95.3896,260.2837,198.9995,160.5866,0,U,59068,999,13017,.31986916E-3,.4129E-4,0
SITRO-AIS 28,2024-039U,2026-07-23T15:08:41.987328,14.93931714,.0142954,95.3891,260.3628,198.6853,160.9096,0,U,59071,999,13018,.35281822E-3,.4561E-4,0
GRBBETA,2024-128C,2026-07-23T02:56:40.615584,15.06847809,.00359982,61.9898,90.1657,142.3680,217.9942,0,U,60237,999,11168,.22788353E-3,.3245E-4,0
OOV-CUBE (TUBSAT-30),2024-128F,2026-07-23T04:25:49.884960,15.02898344,.00400777,61.9942,100.0399,141.8645,218.5295,0,U,60240,999,11152,.14199344E-3,.1732E-4,0
ROBUSTA-3A (MEDITERRANEE),2024-128J,2026-07-23T09:05:30.670080,15.12073047,.00368702,61.9864,80.2188,135.7229,224.6827,0,U,60243,999,11189,.43415739E-3,.7411E-4,0
LASARSAT,2024-247Q,2026-07-23T07:40:52.896288,15.48476660,.00087253,44.9747,58.8369,216.7306,143.2988,0,U,62391,999,8891,.67063676E-3,.36309E-3,0
CROCUBE,2024-247T,2026-07-22T22:44:56.393952,15.50668241,.0008728,44.9710,57.6351,220.4792,139.5451,0,U,62394,999,8889,.81914862E-3,.48107E-3,0
FORESAIL-1 PRIME,2025-276DS,2026-07-23T05:32:53.244384,15.18986431,.00022474,97.4185,276.8460,25.0792,335.0551,0,U,66778,999,3587,.19750842E-3,.4064E-4,0
KNACKSAT-2,1998-067XZ,2026-07-23T06:03:19.332576,15.63087127,.00074539,51.6273,112.6377,354.3723,5.7186,0,U,67683,999,2591,.59135592E-3,.5483E-3,0
